OBJECT_NAME,OBJECT_ID,EPOCH,MEAN_MOTION,ECCENTRICITY,INCLINATION,RA_OF_ASC_NODE,ARG_OF_PERICENTER,MEAN_ANOMALY,EPHEMERIS_TYPE,CLASSIFICATION_TYPE,NORAD_CAT_ID,ELEMENT_SET_NO,REV_AT_EPOCH,BSTAR,MEAN_MOTION_DOT,MEAN_MOTION_DDOT
SL-14 R/B,1990-018B,2026-07-06T20:36:33.001920,14.82230238,.0017523,82.5221,111.7222,62.4199,297.8793,0,U,20511,999,94023,.44176E-4,.377E-5,0
HST,1990-037B,2026-07-06T10:33:18.834912,15.30991511,.000183,28.4736,308.9719,18.2005,341.8656,0,U,20580,999,79152,.18213E-3,.5846E-4,0
SL-16 R/B,1990-046B,2026-07-07T00:35:14.735040,14.15022999,.0012493,70.9985,47.2860,128.7827,231.4414,0,U,20625,999,86527,-.44695E-4,-.134E-5,0
COSMOS 2084,1990-055A,2026-07-06T15:31:56.766720,15.06202220,.0007054,62.7907,289.6673,309.5076,50.5401,0,U,20663,999,95423,.14327E-3,.1908E-4,0
SL-6 R/B(2),1990-055D,2026-07-07T01:28:40.777248,15.04065867,.0043806,62.7797,207.7423,7.8851,352.2927,0,U,20666,999,95614,.11877E-3,.1476E-4,0
SL-8 R/B,1990-078B,2026-07-06T23:14:06.844128,14.93342241,.0344995,82.9027,143.7583,331.5283,26.7457,0,U,20775,999,82707,.52876E-3,.18674E-3,0
SL-8 R/B,1991-006B,2026-07-07T03:11:04.417728,13.77508204,.0023755,82.9419,81.1957,61.9631,107.5126,0,U,21088,999,78051,.59376E-4,.75E-6,0
OKEAN-3,1991-039A,2026-07-07T03:30:39.983040,15.05409793,.0011974,82.5138,221.0256,284.7347,75.2552,0,U,21397,999,88300,.10408E-3,.1523E-4,0
COSMOS 2151,1991-042A,2026-07-07T03:11:07.194624,15.00497305,.0012733,82.4975,328.4310,22.3756,337.8021,0,U,21422,999,88110,.13061E-3,.1674E-4,0
SL-14 R/B,1991-042B,2026-07-06T22:29:11.699808,14.81914837,.0016244,82.4936,108.3759,204.5016,155.5428,0,U,21423,999,87073,.37486E-4,.321E-5,0
ERS-1,1991-050A,2026-07-06T21:43:04.185984,14.39529141,.0031388,98.7794,209.0845,206.5619,153.3961,0,U,21574,999,83288,.77547E-4,.197E-5,0
ARIANE 40 R/B,1991-050F,2026-07-07T02:08:07.274112,14.42968807,.0004408,98.1864,235.7296,78.8859,281.2828,0,U,21610,999,83621,.80834E-4,.229E-5,0
INTERCOSMOS 25,1991-086A,2026-07-07T00:05:32.576064,12.12228872,.1484182,82.6021,237.8180,219.6061,128.6898,0,U,21819,999,51115,.24391E-3,.1235E-4,0
SL-8 R/B,1992-008B,2026-07-06T23:27:18.629280,13.75981947,.0035184,82.9263,179.0730,159.0980,261.2794,0,U,21876,999,72582,.11949E-3,.132E-5,0
SL-8 R/B,1992-020B,2026-07-07T01:51:16.642080,13.75550288,.0028358,82.9293,65.0825,327.0562,192.6993,0,U,21938,999,71754,.8677E-5,.23E-6,0
USA 81,1992-023A,2026-07-07T02:44:08.647008,14.32403447,.0002327,85.0060,62.5052,68.8628,291.2813,0,U,21949,999,11188,.39786E-4,.128E-5,0
COSMOS 2219,1992-076A,2026-07-06T22:13:53.233248,14.14110081,.0017715,71.0613,128.8081,10.7612,349.3886,0,U,22219,999,73523,.23946E-4,-.1E-7,0
SL-16 R/B,1992-076B,2026-07-06T17:40:49.221120,14.16874049,.0015007,71.0010,297.5990,272.9951,197.4237,0,U,22220,999,73869,.38366E-4,.29E-6,0
COSMOS 2221,1992-080A,2026-07-06T22:19:22.537344,14.96587589,.001512,82.5036,164.8485,145.8074,214.4125,0,U,22236,999,79862,.12493E-3,.1451E-4,0
SL-16 R/B,1992-093B,2026-07-07T04:06:34.259904,14.15466783,.0002744,71.0223,113.4395,151.9525,208.1746,0,U,22285,999,73006,.64735E-4,.79E-6,0
COSMOS 2228,1992-094A,2026-07-07T03:10:02.545824,14.97657937,.0015984,82.5189,122.9391,259.0787,100.8637,0,U,22286,999,79393,.13479E-3,.1607E-4,0
SL-16 R/B,1993-016B,2026-07-06T17:30:13.938336,14.15312098,.0009106,71.0086,325.1612,153.2156,206.9438,0,U,22566,999,71901,-.82949E-4,-.209E-5,0
COSMOS 2242,1993-024A,2026-07-06T23:12:18.922752,14.96967126,.0014374,82.5192,152.6186,263.4793,96.4793,0,U,22626,999,79823,.14044E-3,.1643E-4,0
SL-16 R/B,1993-059B,2026-07-06T23:16:54.206112,14.17251251,.0016213,70.9906,119.5857,21.3399,338.8397,0,U,22803,999,69643,.2066E-4,-.6E-7,0
ARIANE 40 R/B,1993-061H,2026-07-07T02:33:10.679904,14.32916294,.0009512,98.4810,254.5489,292.8099,67.2080,0,U,22830,999,71120,.73136E-4,.157E-5,0
COSMOS 2278,1994-023A,2026-07-06T16:41:45.034368,14.14394987,.0010038,71.0540,286.1091,218.5200,141.5207,0,U,23087,999,66163,-.94801E-4,-.229E-5,0
SL-16 R/B,1994-023B,2026-07-06T16:31:45.141024,14.15024765,.00016,70.9977,180.9760,157.4247,202.6946,0,U,23088,999,66292,-.84573E-4,-.212E-5,0
SL-16 R/B,1994-074B,2026-07-07T00:36:09.409824,14.79519407,.0006456,97.6984,213.9188,179.4769,210.7216,0,U,23343,999,70489,.53512E-4,.351E-5,0
SL-16 R/B,1994-077B,2026-07-06T23:27:11.478816,14.15577020,.0004002,70.9832,101.5290,309.9943,50.0828,0,U,23405,999,63311,-.97205E-4,-.238E-5,0
ARIANE 40+ R/B,1995-021B,2026-07-07T04:47:11.603040,14.39844596,.000764,98.4403,257.9846,137.0236,244.1674,0,U,23561,999,63644,.8222E-4,.215E-5,0
SL-16 R/B,1995-058B,2026-07-06T16:58:28.200576,14.15509056,.0014635,71.0222,290.3754,293.9269,66.0321,0,U,23705,999,58469,-.95571E-4,-.235E-5,0
