SL-14 R/B               
1 20511U 90018B   26187.85871530  .00000377  00000+0  44176-4 0  9990
2 20511  82.5221 111.7222 0017523  62.4199 297.8793 14.82230238940232
HST                     
1 20580U 90037B   26187.43980133  .00005846  00000+0  18213-3 0  9999
2 20580  28.4736 308.9719 0001830  18.2005 341.8656 15.30991511791524
SL-16 R/B               
1 20625U 90046B   26188.02447610 -.00000134  00000+0 -44695-4 0  9994
2 20625  70.9985  47.2860 0012493 128.7827 231.4414 14.15022999865275
COSMOS 2084             
1 20663U 90055A   26187.64718480  .00001908  00000+0  14327-3 0  9995
2 20663  62.7907 289.6673 0007054 309.5076  50.5401 15.06202220954235
SL-6 R/B(2)             
1 20666U 90055D   26188.06158307  .00001476  00000+0  11877-3 0  9998
2 20666  62.7797 207.7423 0043806   7.8851 352.2927 15.04065867956142
SL-8 R/B                
1 20775U 90078B   26187.96813477  .00018674  00000+0  52876-3 0  9990
2 20775  82.9027 143.7583 0344995 331.5283  26.7457 14.93342241827079
SL-8 R/B                
1 21088U 91006B   26188.13269002  .00000075  00000+0  59376-4 0  9998
2 21088  82.9419  81.1957 0023755  61.9631 107.5126 13.77508204780513
OKEAN-3                 
1 21397U 91039A   26188.14629610  .00001523  00000+0  10408-3 0  9994
2 21397  82.5138 221.0256 0011974 284.7347  75.2552 15.05409793883004
COSMOS 2151             
1 21422U 91042A   26188.13272216  .00001674  00000+0  13061-3 0  9997
2 21422  82.4975 328.4310 0012733  22.3756 337.8021 15.00497305881106
SL-14 R/B               
1 21423U 91042B   26187.93694097  .00000321  00000+0  37486-4 0  9996
2 21423  82.4936 108.3759 0016244 204.5016 155.5428 14.81914837870735
ERS-1                   
1 21574U 91050A   26187.90490956  .00000197  00000+0  77547-4 0  9990
2 21574  98.7794 209.0845 0031388 206.5619 153.3961 14.39529141832881
ARIANE 40 R/B           
1 21610U 91050F   26188.08897308  .00000229  00000+0  80834-4 0  9992
2 21610  98.1864 235.7296 0004408  78.8859 281.2828 14.42968807836213
INTERCOSMOS 25          
1 21819U 91086A   26188.00384926  .00001235  00000+0  24391-3 0  9994
2 21819  82.6021 237.8180 1484182 219.6061 128.6898 12.12228872511154
SL-8 R/B                
1 21876U 92008B   26187.97729895  .00000132  00000+0  11949-3 0  9995
2 21876  82.9263 179.0730 0035184 159.0980 261.2794 13.75981947725825
SL-8 R/B                
1 21938U 92020B   26188.07727595  .00000023  00000+0  86770-5 0  9990
2 21938  82.9293  65.0825 0028358 327.0562 192.6993 13.75550288717542
USA 81                  
1 21949U 92023A   26188.11398897  .00000128  00000+0  39786-4 0  9999
2 21949  85.0060  62.5052 0002327  68.8628 291.2813 14.32403447111885
COSMOS 2219             
1 22219U 92076A   26187.92631057 -.00000001  00000+0  23946-4 0  9996
2 22219  71.0613 128.8081 0017715  10.7612 349.3886 14.14110081735234
SL-16 R/B               
1 22220U 92076B   26187.73668080  .00000029  00000+0  38366-4 0  9994
2 22220  71.0010 297.5990 0015007 272.9951 197.4237 14.16874049738698
COSMOS 2221             
1 22236U 92080A   26187.93012196  .00001451  00000+0  12493-3 0  9991
2 22236  82.5036 164.8485 0015120 145.8074 214.4125 14.96587589798628
SL-16 R/B               
1 22285U 92093B   26188.17122986  .00000079  00000+0  64735-4 0  9997
2 22285  71.0223 113.4395 0002744 151.9525 208.1746 14.15466783730066
COSMOS 2228             
1 22286U 92094A   26188.13197391  .00001607  00000+0  13479-3 0  9993
2 22286  82.5189 122.9391 0015984 259.0787 100.8637 14.97657937793931
SL-16 R/B               
1 22566U 93016B   26187.72932799 -.00000209  00000+0 -82949-4 0  9990
2 22566  71.0086 325.1612 0009106 153.2156 206.9438 14.15312098719018
COSMOS 2242             
1 22626U 93024A   26187.96688568  .00001643  00000+0  14044-3 0  9995
2 22626  82.5192 152.6186 0014374 263.4793  96.4793 14.96967126798237
SL-16 R/B               
1 22803U 93059B   26187.97007183 -.00000006  00000+0  20660-4 0  9994
2 22803  70.9906 119.5857 0016213  21.3399 338.8397 14.17251251696432
ARIANE 40 R/B           
1 22830U 93061H   26188.10637361  .00000157  00000+0  73136-4 0  9992
2 22830  98.4810 254.5489 0009512 292.8099  67.2080 14.32916294711205
COSMOS 2278             
1 23087U 94023A   26187.69566012 -.00000229  00000+0 -94801-4 0  9997
2 23087  71.0540 286.1091 0010038 218.5200 141.5207 14.14394987661638
SL-16 R/B               
1 23088U 94023B   26187.68871691 -.00000212  00000+0 -84573-4 0  9996
2 23088  70.9977 180.9760 0001600 157.4247 202.6946 14.15024765662929
SL-16 R/B               
1 23343U 94074B   26188.02510891  .00000351  00000+0  53512-4 0  9998
2 23343  97.6984 213.9188 0006456 179.4769 210.7216 14.79519407704890
SL-16 R/B               
1 23405U 94077B   26187.97721619 -.00000238  00000+0 -97205-4 0  9998
2 23405  70.9832 101.5290 0004002 309.9943  50.0828 14.15577020633115
ARIANE 40+ R/B          
1 23561U 95021B   26188.19943985  .00000215  00000+0  82220-4 0  9992
2 23561  98.4403 257.9846 0007640 137.0236 244.1674 14.39844596636441
SL-16 R/B               
1 23705U 95058B   26187.70727084 -.00000235  00000+0 -95571-4 0  9995
2 23705  71.0222 290.3754 0014635 293.9269  66.0321 14.15509056584698
